Address1,Address2,City,State,Zip
123 Fake Rd. ,,Fake City,GA,00000
3325 Kirby Pkwy Suite 101,,Memphis,TN,38115
1410 Oak Lake Circle,,Collierville ,TN,38017
PO Box 80735,,Memphis,TN,38108
2211 S I-35 Frontage Rd Suite 401,,Austin,TX,78741
118 Young St,,Brownsville,TN,38012
5767 N Watkins,,Memphis,TN,38127
3955 Vantech Dr.,Bldg. C Ste 7,Memphis,TN,38115
1322 hardwood trail ,Suite 104,Cordova,TN,38016
1410 Oak Lake Circle,,Co,TN,3
6707 Fletcher Creek Cove,,Memphis,TN,38133
"1650 E Winding Way Dr., Bldg. B, STE 100",Bldg B.,FRIENDSWOOD,TX,77546
1835 CANDLE RIDGE,,MEMPHIS,TN,38016
3229 Lakeview Rd,,Memphis,TN,38116-3126
P.O. Box 512,,Eads,TN,38028
1441 S PERKINS RD,,MEMPHIS,TN,38117-6555
1441 South Perkins Road,,Memphis,TN,38117
265 Sussex Ln South,Apt 204,Cordova,TN,38018
8457 Freiden Trail,,Memphis,TN,38125
4543 Craigmont Dr,Falkirk Road,Memphis,TN,38128
1840 Pyramid Place,Suite 428,Memphis,TN,38132
1840 Pyramid PL,Suite 342,Memphis,TN,38132
3910 Park Ave.,,Memphis,TN,38111
346 S. Forest Hill Irene Rd,,Cordova,TN,38018
4297 STAGE RD,,MEMPHIS,TN,38128
4297 STAGE RD,,MEMPHIS,TN,38128
6465 Mullins Station,,Memphis,TN,38134
2672 Dromedary dr,,Memphis,TN,38133
8580 Shakerag Rd,,Millington,TN,38053
6040 Apple Tree Drive,Suite 4,Memphis,TN,38115
818 Town and County Blvd #200,,Houston,TX,77024